<?xml version="1.0" encoding="UTF-8"?>
<gpx xmlns="http://www.topografix.com/GPX/1/1" version="1.1" creator="MyGPSFiles" xsi:schemaLocation="http://www.topografix.com/GPX/1/1 http://www.topografix.com/GPX/1/1/gpx.xsd" xmlns:xsi="http://www.w3.org/2001/XMLSchema-instance">
  <trk>
    <name>Border_England_Scotland_1</name>
    <desc>Total: 158.5km</desc>
    <trkseg>
      <trkpt lat="55.811184" lon="-2.034568">
        <ele>38.3</ele>
      </trkpt>
      <trkpt lat="55.793045" lon="-2.086123">
        <ele>93.8</ele>
      </trkpt>
      <trkpt lat="55.76204" lon="-2.085639">
        <ele>3.4</ele>
      </trkpt>
      <trkpt lat="55.759888" lon="-2.107642">
        <ele>7.9</ele>
      </trkpt>
      <trkpt lat="55.738775" lon="-2.117637">
        <ele>21</ele>
      </trkpt>
      <trkpt lat="55.73927" lon="-2.144296">
        <ele>7.3</ele>
      </trkpt>
      <trkpt lat="55.723154" lon="-2.150576">
        <ele>27.8</ele>
      </trkpt>
      <trkpt lat="55.718689" lon="-2.176689">
        <ele>9.7</ele>
      </trkpt>
      <trkpt lat="55.706035" lon="-2.167231">
        <ele>17.4</ele>
      </trkpt>
      <trkpt lat="55.675907" lon="-2.218659">
        <ele>15</ele>
      </trkpt>
      <trkpt lat="55.66426" lon="-2.218453">
        <ele>36.3</ele>
      </trkpt>
      <trkpt lat="55.65215" lon="-2.248346">
        <ele>16.2</ele>
      </trkpt>
      <trkpt lat="55.641042" lon="-2.234369">
        <ele>15.7</ele>
      </trkpt>
      <trkpt lat="55.647044" lon="-2.30579">
        <ele>21</ele>
      </trkpt>
      <trkpt lat="55.632481" lon="-2.336005">
        <ele>34.1</ele>
      </trkpt>
      <trkpt lat="55.626166" lon="-2.324311">
        <ele>61.6</ele>
      </trkpt>
      <trkpt lat="55.628876" lon="-2.308626">
        <ele>74.8</ele>
      </trkpt>
      <trkpt lat="55.620458" lon="-2.316094">
        <ele>107.8</ele>
      </trkpt>
      <trkpt lat="55.603774" lon="-2.289232">
        <ele>114.3</ele>
      </trkpt>
      <trkpt lat="55.580307" lon="-2.288811">
        <ele>164.4</ele>
      </trkpt>
      <trkpt lat="55.555627" lon="-2.240307">
        <ele>139.8</ele>
      </trkpt>
      <trkpt lat="55.509519" lon="-2.228846">
        <ele>494.6</ele>
      </trkpt>
      <trkpt lat="55.489541" lon="-2.202649">
        <ele>503.7</ele>
      </trkpt>
      <trkpt lat="55.475268" lon="-2.201336">
        <ele>484.5</ele>
      </trkpt>
      <trkpt lat="55.468382" lon="-2.165521">
        <ele>738.1</ele>
      </trkpt>
      <trkpt lat="55.462115" lon="-2.188078">
        <ele>581.2</ele>
      </trkpt>
      <trkpt lat="55.44459" lon="-2.194858">
        <ele>510.4</ele>
      </trkpt>
      <trkpt lat="55.428429" lon="-2.231282">
        <ele>600.1</ele>
      </trkpt>
      <trkpt lat="55.432934" lon="-2.260611">
        <ele>500.9</ele>
      </trkpt>
      <trkpt lat="55.406789" lon="-2.313254">
        <ele>444.9</ele>
      </trkpt>
      <trkpt lat="55.408208" lon="-2.335629">
        <ele>459.3</ele>
      </trkpt>
      <trkpt lat="55.399313" lon="-2.344947">
        <ele>459.7</ele>
      </trkpt>
      <trkpt lat="55.381242" lon="-2.330021">
        <ele>475</ele>
      </trkpt>
      <trkpt lat="55.373061" lon="-2.346233">
        <ele>471.8</ele>
      </trkpt>
      <trkpt lat="55.367191" lon="-2.33753">
        <ele>413.8</ele>
      </trkpt>
      <trkpt lat="55.349169" lon="-2.378912">
        <ele>478.9</ele>
      </trkpt>
      <trkpt lat="55.348185" lon="-2.399245">
        <ele>487.9</ele>
      </trkpt>
      <trkpt lat="55.358922" lon="-2.414997">
        <ele>422.7</ele>
      </trkpt>
      <trkpt lat="55.35474" lon="-2.475393">
        <ele>421.3</ele>
      </trkpt>
      <trkpt lat="55.323047" lon="-2.52027">
        <ele>544.4</ele>
      </trkpt>
      <trkpt lat="55.317853" lon="-2.559008">
        <ele>468.5</ele>
      </trkpt>
      <trkpt lat="55.296884" lon="-2.573363">
        <ele>475.9</ele>
      </trkpt>
      <trkpt lat="55.283248" lon="-2.609238">
        <ele>378.4</ele>
      </trkpt>
      <trkpt lat="55.262221" lon="-2.626656">
        <ele>219.3</ele>
      </trkpt>
      <trkpt lat="55.260044" lon="-2.646771">
        <ele>359.1</ele>
      </trkpt>
      <trkpt lat="55.247134" lon="-2.611451">
        <ele>248.8</ele>
      </trkpt>
      <trkpt lat="55.244791" lon="-2.630229">
        <ele>282.6</ele>
      </trkpt>
      <trkpt lat="55.223698" lon="-2.631414">
        <ele>436.2</ele>
      </trkpt>
      <trkpt lat="55.22158" lon="-2.666815">
        <ele>489.1</ele>
      </trkpt>
      <trkpt lat="55.188983" lon="-2.689789">
        <ele>336.2</ele>
      </trkpt>
      <trkpt lat="55.173173" lon="-2.703477">
        <ele>283.1</ele>
      </trkpt>
      <trkpt lat="55.141791" lon="-2.784848">
        <ele>151.7</ele>
      </trkpt>
      <trkpt lat="55.138314" lon="-2.825503">
        <ele>84.9</ele>
      </trkpt>
      <trkpt lat="55.124837" lon="-2.827608">
        <ele>86</ele>
      </trkpt>
      <trkpt lat="55.108349" lon="-2.85854">
        <ele>80.5</ele>
      </trkpt>
      <trkpt lat="55.09481" lon="-2.886292">
        <ele>66.6</ele>
      </trkpt>
      <trkpt lat="55.07795" lon="-2.896879">
        <ele>60.6</ele>
      </trkpt>
      <trkpt lat="55.069128" lon="-2.940429">
        <ele>26.5</ele>
      </trkpt>
      <trkpt lat="55.059586" lon="-2.936407">
        <ele>65</ele>
      </trkpt>
      <trkpt lat="55.049295" lon="-2.958594">
        <ele>25</ele>
      </trkpt>
      <trkpt lat="55.052804" lon="-3.050929">
        <ele>54.1</ele>
      </trkpt>
      <trkpt lat="55.047284" lon="-3.05342">
        <ele>56.8</ele>
      </trkpt>
      <trkpt lat="55.036487" lon="-3.025876">
        <ele>34.9</ele>
      </trkpt>
      <trkpt lat="55.009395" lon="-3.049457">
        <ele>17.3</ele>
      </trkpt>
      <trkpt lat="54.998557" lon="-3.044084">
        <ele>16</ele>
      </trkpt>
      <trkpt lat="54.986521" lon="-3.056141"/>
      <trkpt lat="54.986567" lon="-3.056372"/>
      <trkpt lat="54.991721" lon="-3.057556">
        <ele>6.1</ele>
      </trkpt>
      <trkpt lat="54.992805" lon="-3.053452">
        <ele>7.7</ele>
      </trkpt>
    </trkseg>
  </trk>
</gpx>
